     2              NAVIGATION DATA                         RINEX VERSION / TYPE
CCRINEXN V1.6.0 UX  CDDIS               18-MAR-16 15:33     PGM / RUN BY / DATE 
IGS BROADCAST EPHEMERIS FILE                                COMMENT             
    0.1676D-07  0.7451D-08 -0.1192D-06  0.0000D+00          ION ALPHA           
    0.1106D+06  0.0000D+00 -0.2621D+06  0.0000D+00          ION BETA            
    0.279396772385D-08 0.799360577730D-14   503808     1888 DELTA-UTC: A0,A1,T,W
    17                                                      LEAP SECONDS        
                                                            END OF HEADER       
12 16  3 17  6  0  0.0 0.372725538909D-03 0.147792889038D-11 0.000000000000D+00
    0.690000000000D+02 0.507500000000D+02 0.402659629533D-08 0.144453500094D+01
    0.250712037086D-05 0.597815448418D-02 0.510364770889D-05 0.515376830673D+04
    0.367200000000D+06-0.800937414169D-07-0.295662958347D+01 0.745058059692D-07
    0.990576640145D+00 0.294718750000D+03 0.689039073266D+00-0.809462288782D-08
    0.207508643568D-09 0.100000000000D+01 0.188800000000D+04 0.000000000000D+00
    0.200000000000D+01 0.000000000000D+00-0.121071934700D-07 0.690000000000D+02
    0.360018000000D+06 0.400000000000D+01 0.000000000000D+00 0.000000000000D+00
13 16  3 17  6  0  0.0-0.408245250583D-05-0.284217094304D-11 0.000000000000D+00
    0.100000000000D+03 0.978125000000D+01 0.425624868683D-08 0.284199939261D+01
    0.558793544769D-06 0.462697690818D-02 0.784918665886D-05 0.515367874145D+04
    0.367200000000D+06 0.316649675369D-07 0.129376177170D+01 0.353902578354D-07
    0.971689244220D+00 0.234562500000D+03 0.198657071902D+01-0.781461118038D-08
   -0.366086688741D-09 0.100000000000D+01 0.188800000000D+04 0.000000000000D+00
    0.200000000000D+01 0.000000000000D+00-0.111758708954D-07 0.100000000000D+03
    0.360000000000D+06 0.000000000000D+00 0.000000000000D+00 0.000000000000D+00
14 16  3 17  6  0  0.0-0.298628583550D-05-0.227373675443D-11 0.000000000000D+00
    0.800000000000D+01 0.562500000000D+00 0.455590405740D-08-0.161838445504D+01
    0.465661287308D-07 0.839068717323D-02 0.746734440327D-05 0.515373168373D+04
    0.367200000000D+06 0.253319740295D-06 0.125716142219D+01 0.540167093277D-07
    0.964198423397D+00 0.238343750000D+03-0.195467073846D+01-0.800140471920D-08
   -0.391802034413D-09 0.100000000000D+01 0.188800000000D+04 0.000000000000D+00
    0.200000000000D+01 0.000000000000D+00-0.931322574616D-08 0.800000000000D+01
    0.360018000000D+06 0.400000000000D+01 0.000000000000D+00 0.000000000000D+00
15 16  3 17  6  0  0.0-0.302099622786D-03-0.181898940355D-11 0.000000000000D+00
    0.200000000000D+02 0.434375000000D+01 0.530307803734D-08-0.242674429973D+01
    0.165775418282D-06 0.808243872598D-02 0.702403485775D-05 0.515355348778D+04
    0.367200000000D+06 0.316649675369D-07 0.112324430809D+01-0.894069671631D-07
    0.931083410378D+00 0.229468750000D+03 0.478898751438D+00-0.836320550394D-08
   -0.232152527227D-09 0.100000000000D+01 0.188800000000D+04 0.000000000000D+00
    0.200000000000D+01 0.000000000000D+00-0.107102096081D-07 0.200000000000D+02
    0.360018000000D+06 0.400000000000D+01 0.000000000000D+00 0.000000000000D+00
16 16  3 17  6  0  0.0-0.316137447953D-04 0.295585778076D-11 0.000000000000D+00
    0.350000000000D+02 0.451250000000D+02 0.396837958465D-08-0.608779561907D+00
    0.251270830631D-05 0.867403286975D-02 0.508315861225D-05 0.515372325516D+04
    0.367200000000D+06 0.137835741043D-06-0.293787729827D+01 0.540167093277D-07
    0.991090949476D+00 0.292875000000D+03 0.341512000888D+00-0.802283418325D-08
    0.253939149013D-09 0.000000000000D+00 0.188800000000D+04 0.000000000000D+00
    0.200000000000D+01 0.000000000000D+00-0.102445483208D-07 0.350000000000D+02
    0.360000000000D+06 0.400000000000D+01 0.000000000000D+00 0.000000000000D+00
17 16  3 17  6  0  0.0-0.202146824449D-03-0.454747350886D-12 0.000000000000D+00
    0.780000000000D+02-0.571562500000D+02 0.444482800207D-08-0.155456605385D+01
   -0.278279185295D-05 0.109913798515D-01 0.570714473724D-05 0.515365615082D+04
    0.367200000000D+06 0.152736902237D-06-0.191559343897D+01 0.175088644028D-06
    0.975396623882D+00 0.274468750000D+03-0.193601399059D+01-0.803426323074D-08
   -0.264296723305D-10 0.100000000000D+01 0.188800000000D+04 0.000000000000D+00
    0.280000000000D+01 0.000000000000D+00-0.107102096081D-07 0.780000000000D+02
    0.360018000000D+06 0.400000000000D+01 0.000000000000D+00 0.000000000000D+00
18 16  3 17  6  0  0.0 0.494509469718D-03 0.409272615798D-11 0.000000000000D+00
    0.170000000000D+02 0.194687500000D+02 0.566166447058D-08 0.716707705181D-02
    0.117160379887D-05 0.168342536781D-01 0.770576298237D-05 0.515366294670D+04
    0.367200000000D+06-0.189989805222D-06 0.103565469940D+00 0.160187482834D-06
    0.925415470332D+00 0.214968750000D+03-0.190450273956D+01-0.885072548584D-08
    0.148934781174D-09 0.100000000000D+01 0.188800000000D+04 0.000000000000D+00
    0.200000000000D+01 0.000000000000D+00-0.111758708954D-07 0.170000000000D+02
    0.360000000000D+06 0.000000000000D+00 0.000000000000D+00 0.000000000000D+00
19 16  3 17  6  0  0.0-0.525331590325D-03-0.227373675443D-12 0.000000000000D+00
    0.102000000000D+03-0.675937500000D+02 0.450483050142D-08 0.158076353292D+01
   -0.347197055817D-05 0.107501223683D-01 0.631809234619D-05 0.515360873604D+04
    0.367200000000D+06-0.245869159698D-06-0.186661454668D+01 0.160187482834D-06
    0.972462972815D+00 0.268218750000D+03 0.724448727420D+00-0.824070040111D-08
   -0.133576992589D-09 0.100000000000D+01 0.188800000000D+04 0.000000000000D+00
    0.200000000000D+01 0.000000000000D+00-0.153668224812D-07 0.102000000000D+03
    0.360018000000D+06 0.400000000000D+01 0.000000000000D+00 0.000000000000D+00
20 16  3 17  6  0  0.0 0.399819109589D-03 0.250111042988D-11 0.000000000000D+00
    0.930000000000D+02 0.180625000000D+02 0.542201172848D-08-0.231514211962D+01
    0.959262251854D-06 0.476676947437D-02 0.789761543274D-05 0.515370390129D+04
    0.367200000000D+06 0.745058059692D-07 0.516659363222D-01 0.186264514923D-08
    0.926672122813D+00 0.208625000000D+03 0.134477214956D+01-0.837177704938D-08
    0.210723063998D-09 0.100000000000D+01 0.188800000000D+04 0.000000000000D+00
    0.200000000000D+01 0.000000000000D+00-0.838190317154D-08 0.930000000000D+02
    0.360000000000D+06 0.000000000000D+00 0.000000000000D+00 0.000000000000D+00
21 16  3 17  6  0  0.0-0.515196472406D-03-0.170530256582D-11 0.000000000000D+00
    0.460000000000D+02-0.649062500000D+02 0.522878922863D-08 0.874750190457D+00
   -0.329501926899D-05 0.232786986744D-01 0.106189399958D-04 0.515365616035D+04
    0.367200000000D+06-0.381842255592D-06-0.938449514509D+00-0.186264514923D-08
    0.935813347834D+00 0.173812500000D+03-0.181518496819D+01-0.870964850611D-08
   -0.246438836595D-10 0.000000000000D+00 0.188800000000D+04 0.000000000000D+00
    0.200000000000D+01 0.000000000000D+00-0.116415321827D-07 0.460000000000D+02
    0.360000000000D+06 0.400000000000D+01 0.000000000000D+00 0.000000000000D+00
22 16  3 17  6  0  0.0 0.380001030862D-03-0.670752342558D-11 0.000000000000D+00
    0.210000000000D+02 0.220625000000D+02 0.546201322906D-08-0.152341650345D+01
    0.111572444439D-05 0.777280703187D-02 0.738538801670D-05 0.515506598663D+04
    0.367200000000D+06 0.139698386192D-06 0.104314896540D+00 0.968575477600D-07
    0.923279197393D+00 0.213781250000D+03-0.200875565226D+01-0.842177937234D-08
    0.164292557730D-09 0.000000000000D+00 0.188800000000D+04 0.000000000000D+00
    0.200000000000D+01 0.000000000000D+00-0.176951289177D-07 0.210000000000D+02
    0.360330000000D+06 0.400000000000D+01 0.000000000000D+00 0.000000000000D+00
24 16  3 17  6  0  0.0-0.140271149576D-04-0.568434188608D-12 0.000000000000D+00
    0.370000000000D+02 0.561562500000D+02 0.448982987658D-08 0.282533815278D+01
    0.295788049698D-05 0.435378891416D-02 0.976957380772D-05 0.515363589668D+04
    0.367200000000D+06-0.186264514923D-07 0.220641937923D+01-0.465661287308D-07
    0.950094427269D+00 0.185156250000D+03 0.394448541542D+00-0.804712090917D-08
   -0.764317551180D-10 0.100000000000D+01 0.188800000000D+04 0.000000000000D+00
    0.200000000000D+01 0.000000000000D+00 0.232830643654D-08 0.370000000000D+02
    0.360018000000D+06 0.400000000000D+01 0.000000000000D+00 0.000000000000D+00
25 16  3 17  6  0  0.0-0.135621987283D-03-0.693489710102D-11 0.000000000000D+00
    0.360000000000D+02 0.585000000000D+02 0.427517807833D-08 0.904763387050D+00
    0.284425914288D-05 0.538390281145D-02 0.523217022419D-05 0.515378442192D+04
    0.367200000000D+06-0.260770320892D-07-0.300667243998D+01 0.316649675369D-07
    0.978859705001D+00 0.287718750000D+03 0.722826175720D+00-0.822212819893D-08
    0.200008331150D-09 0.100000000000D+01 0.188800000000D+04 0.000000000000D+00
    0.200000000000D+01 0.000000000000D+00 0.558793544769D-08 0.360000000000D+02
    0.360342000000D+06 0.400000000000D+01 0.000000000000D+00 0.000000000000D+00
26 16  3 17  6  0  0.0-0.295583624393D-03-0.145519152284D-10 0.000000000000D+00
    0.670000000000D+02 0.509687500000D+02 0.461162066394D-08 0.220462651314D+00
    0.271201133728D-05 0.946637126617D-03 0.525824725628D-05 0.515372490311D+04
    0.367200000000D+06-0.298023223877D-07-0.301438823273D+01 0.000000000000D+00
    0.960855850154D+00 0.276375000000D+03-0.970812918255D-03-0.828391648694D-08
    0.231795369493D-09 0.000000000000D+00 0.188800000000D+04 0.000000000000D+00
    0.200000000000D+01 0.000000000000D+00 0.698491930962D-08 0.670000000000D+02
    0.360000000000D+06 0.400000000000D+01 0.000000000000D+00 0.000000000000D+00
